{"generatedAt":"2026-05-02T07:52:09.526867Z","satellites":[{"name":"TIANLIAN 1-04","tle1":"1 41869U 16072A   26121.80538853  .00000037  00000+0  00000+0 0  9994","tle2":"2 41869   0.7486  83.0632 0040284  91.9713 151.4365  1.00273537 34836"},{"name":"WGS F8 (USA 272)","tle1":"1 41879U 16075A   26121.80001517 -.00000197  00000+0  00000+0 0  9998","tle2":"2 41879   0.0134 299.1023 0000173 235.2553 123.1898  1.00270650 34359"},{"name":"FENGYUN 4A","tle1":"1 41882U 16077A   26121.79481515 -.00000350  00000+0  00000+0 0  9993","tle2":"2 41882   2.2071  80.7555 0008203 145.2292  43.5361  1.00277042 34467"},{"name":"ECHOSTAR 19","tle1":"1 41893U 16079A   26121.16780983  .00000000  00000+0  00000+0 0  9990","tle2":"2 41893   0.0134 273.0115 0001405 133.7152 135.6818  1.00269662 34232"},{"name":"JCSAT-110A (JCSAT-15)","tle1":"1 41903U 16082A   26121.86342520  .00000000  00000+0  00000+0 0  9994","tle2":"2 41903   0.0170 270.2431 0000795 160.8950 209.5504  1.00269568 34296"},{"name":"STAR ONE D1","tle1":"1 41904U 16082B   26121.89627200 -.00000205  00000+0  00000+0 0  9997","tle2":"2 41904   0.0390  90.9318 0002201 317.5759  49.9936  1.00271644 34310"},{"name":"TJS-2","tle1":"1 41911U 17001A   26121.92608545  .00000000  00000+0  00000+0 0  9994","tle2":"2 41911   0.7148  85.8542 0000970 312.1171 221.8046  1.00270930 34251"},{"name":"SBIRS GEO-4 (USA 273)","tle1":"1 41937U 17004A   26121.06138398  .00000127  00000+0  00000+0 0  9994","tle2":"2 41937   2.1559  41.9519 0002461 354.6480 225.3947  1.00272849 34125"},{"name":"HISPASAT 36W-1","tle1":"1 41942U 17006A   26120.83628493 -.00000241  00000+0  00000+0 0  9994","tle2":"2 41942   0.0077 303.2981 0001012  98.7326  81.8191  1.00272144 33770"},{"name":"TELKOM 3S","tle1":"1 41944U 17007A   26121.93631216 -.00000357  00000+0  00000+0 0  9994","tle2":"2 41944   0.0115 241.1127 0002569 170.7681 263.0484  1.00273375 33675"},{"name":"INTELSAT 32E (IS-32E)","tle1":"1 41945U 17007B   26120.83481160  .00000000  00000+0  00000+0 0  9998","tle2":"2 41945   0.0159 269.8801 0000358 105.2391 101.0021  1.00268269 33758"},{"name":"ECHOSTAR 23","tle1":"1 42070U 17014A   26120.19350419  .00000000  00000+0  00000+0 0  9997","tle2":"2 42070   0.0159 251.8035 0002208 153.2325 132.8635  1.00269955 33446"},{"name":"WGS F9 (USA 275)","tle1":"1 42075U 17016A   26120.76975462 -.00000093  00000+0  00000+0 0  9991","tle2":"2 42075   0.0128 247.1380 0000337  98.1672 138.5576  1.00271307 33420"},{"name":"SES-10","tle1":"1 42432U 17017A   26120.40232990 -.00000271  00000+0  00000+0 0  9990","tle2":"2 42432   0.0442  60.7481 0002889 343.0611 252.4835  1.00271219 33275"},{"name":"CHINASAT 16 (SJ-13)","tle1":"1 42662U 17018A   26121.43566081 -.00000347  00000+0  00000+0 0  9995","tle2":"2 42662   0.1062  86.4258 0003883 162.3182 237.9953  1.00271055 33284"},{"name":"KOREASAT 7","tle1":"1 42691U 17023A   26121.93587882 -.00000356  00000+0  00000+0 0  9990","tle2":"2 42691   0.0278   7.4054 0000759  35.5964 269.6678  1.00273095 32909"},{"name":"SGDC","tle1":"1 42692U 17023B   26121.59820854  .00000000  00000+0  00000+0 0  9997","tle2":"2 42692   0.0247  81.6205 0003125 334.2754 304.1338  1.00269744 32942"},{"name":"GSAT-9","tle1":"1 42695U 17024A   26121.93223881 -.00000281  00000+0  00000+0 0  9998","tle2":"2 42695   0.0627  64.8413 0002304 336.9685 251.0020  1.00272930 32838"},{"name":"INMARSAT 5-F4","tle1":"1 42698U 17025A   26120.49807131  .00000000  00000+0  00000+0 0  9996","tle2":"2 42698   0.0157 266.9328 0000307 176.7087  10.6248  1.00271036 32800"},{"name":"SES-15","tle1":"1 42709U 17026A   26121.60683263  .00000065  00000+0  00000+0 0  9993","tle2":"2 42709   0.0226 327.1413 0000750  64.8845 276.8088  1.00270384  6967"},{"name":"QZS-2 (MICHIBIKI-2)","tle1":"1 42738U 17028A   26116.23428738 -.00000266  00000+0  00000+0 0  9998","tle2":"2 42738  39.5095 243.9120 0740318 270.8047 281.9812  1.00247520  7109"},{"name":"VIASAT-2","tle1":"1 42740U 17029A   26120.25915597 -.00000264  00000+0  00000+0 0  9991","tle2":"2 42740   0.0173 271.7133 0000385 126.1014 203.7987  1.00272640 32727"},{"name":"EUTELSAT 172B","tle1":"1 42741U 17029B   26121.66174109  .00000000  00000+0  00000+0 0  9991","tle2":"2 42741   0.0262 154.7183 0000252 339.4525 135.6482  1.00272430 33272"},{"name":"GSAT-19","tle1":"1 42747U 17031A   26121.92235876  .00000131  00000+0  00000+0 0  9993","tle2":"2 42747   0.0119 227.0222 0007230 187.6003 185.1591  1.00273148 32686"},{"name":"ECHOSTAR 21","tle1":"1 42749U 17032A   26121.91499207  .00000069  00000+0  00000+0 0  9995","tle2":"2 42749   1.7783 352.6987 0002569  49.3468 157.4444  1.00273660 32638"},{"name":"BULGARIASAT-1","tle1":"1 42801U 17038A   26121.91334539  .00000000  00000+0  00000+0 0  9991","tle2":"2 42801   0.0214  89.1401 0003908 333.2001 128.2080  1.00269307 32384"},{"name":"HELLAS-SAT 3","tle1":"1 42814U 17040A   26121.92062542  .00000158  00000+0  00000+0 0  9995","tle2":"2 42814   0.0602  66.3894 0005480 322.1160 201.7662  1.00270115 32340"},{"name":"GSAT-17","tle1":"1 42815U 17040B   26121.93145881  .00000000  00000+0  00000+0 0  9991","tle2":"2 42815   0.0125 270.0804 0003667  52.0460 326.5974  1.00270482 32320"},{"name":"INTELSAT 35E (IS-35E)","tle1":"1 42818U 17041A   26121.90606537  .00000000  00000+0  00000+0 0  9992","tle2":"2 42818   0.0142 274.6017 0002160 129.0498 107.8693  1.00269545 32350"},{"name":"COSMOS 2520","tle1":"1 42907U 17046A   26121.06615067  .00000140  00000+0  00000+0 0  9996","tle2":"2 42907   0.0205 117.3189 0000399  20.0935 150.4221  1.00272715 31926"},{"name":"TDRS 13","tle1":"1 42915U 17047A   26121.92384743 -.00000095  00000+0  00000+0 0  9995","tle2":"2 42915   3.4415   1.5792 0013475  98.7391  80.6424  1.00272489 31888"},{"name":"QZS-3 (MICHIBIKI-3)","tle1":"1 42917U 17048A   26121.93804550 -.00000342  00000+0  00000+0 0  9997","tle2":"2 42917   0.0555 164.9264 0001489 236.3574 283.2757  1.00268831 31797"},{"name":"AMAZONAS 5","tle1":"1 42934U 17053A   26120.40345657 -.00000281  00000+0  00000+0 0  9993","tle2":"2 42934   0.0356 312.7250 0004219  52.4850 297.3902  1.00272314 31565"},{"name":"ASIASAT 9","tle1":"1 42942U 17057A   26121.79446848 -.00000354  00000+0  00000+0 0  9994","tle2":"2 42942   0.0122 286.9295 0002084 114.8526 226.0616  1.00269992 31397"},{"name":"INTELSAT 37E (IS-37E)","tle1":"1 42950U 17059A   26121.90935872  .00000000  00000+0  00000+0 0  9995","tle2":"2 42950   0.0061 288.3894 0002839 119.1648 121.6512  1.00268948 31609"},{"name":"BSAT-4A","tle1":"1 42951U 17059B   26120.36601642 -.00000349  00000+0  00000+0 0  9997","tle2":"2 42951   0.0819  60.2850 0004691 347.6102  52.0244  1.00272228 31325"},{"name":"QZS-4 (MICHIBIKI-4)","tle1":"1 42965U 17062A   26119.48926316 -.00000347  00000+0  00000+0 0  9993","tle2":"2 42965  40.1365 344.1034 0745832 270.9475 278.4802  1.00265578 31312"},{"name":"SES-11 (ECHOSTAR 105)","tle1":"1 42967U 17063A   26121.81575189 -.00000084  00000+0  00000+0 0  9992","tle2":"2 42967   0.0650  79.6947 0003001 328.9568 359.8134  1.00271598 31255"},{"name":"KOREASAT 5A","tle1":"1 42984U 17067A   26121.80969531 -.00000353  00000+0  00000+0 0  9991","tle2":"2 42984   0.0183 298.4490 0001287 123.8961 202.0295  1.00270429 31060"},{"name":"ALCOMSAT 1","tle1":"1 43039U 17078A   26121.90797204 -.00000180  00000+0  00000+0 0  9990","tle2":"2 43039   0.0393 125.1413 0002557 261.0907 135.6742  1.00272124 30838"},{"name":"SBIRS GEO-3 (USA 282)","tle1":"1 43162U 18009A   26121.66741972  .00000133  00000+0  00000+0 0  9993","tle2":"2 43162   2.1545   9.8766 0002398  27.2141 263.3747  1.00272925 30373"},{"name":"AL YAH 3","tle1":"1 43174U 18012A   26121.90892538 -.00000149  00000+0  00000+0 0  9990","tle2":"2 43174   1.4334  83.6294 0004520 322.4928 120.8377  1.00272143 30381"},{"name":"SES-14","tle1":"1 43175U 18012B   26120.98517146 -.00000275  00000+0  00000+0 0  9997","tle2":"2 43175   0.0457  64.2752 0001062 341.8315 119.9833  1.00271798  6553"},{"name":"GOES 17","tle1":"1 43226U 18022A   26121.89523199 -.00000177  00000+0  00000+0 0  9992","tle2":"2 43226   0.8203  86.3418 0000716 308.4514  57.8206  1.00271544 29969"},{"name":"HISPASAT 30W-6","tle1":"1 43228U 18023A   26120.26704267 -.00000215  00000+0  00000+0 0  9995","tle2":"2 43228   0.0601  59.4296 0006423 345.3147 239.5970  1.00271499 29925"},{"name":"SUPERBIRD-B3","tle1":"1 43271U 18033A   26121.87373858 -.00000087  00000+0  00000+0 0  9997","tle2":"2 43271   0.0201 288.9689 0001528 149.1148 258.2587  1.00272112 29594"},{"name":"HYLAS 4","tle1":"1 43272U 18033B   26121.83502866 -.00000228  00000+0  00000+0 0  9994","tle2":"2 43272   0.0424  78.5544 0001765 330.7867  77.5678  1.00270886 29605"},{"name":"IRNSS-1I","tle1":"1 43286U 18035A   26116.95808497  .00000091  00000+0  00000+0 0  9994","tle2":"2 43286  29.0590  74.9838 0018249 187.2993 352.6285  1.00275466 29566"},{"name":"USA 283","tle1":"1 43339U 18036A   26119.25392041  .00000000  00000+0  00000+0 0  9993","tle2":"2 43339   0.0181 240.3927 0000306 163.7696  38.5584  1.00270088 24799"},{"name":"COSMOS 2526","tle1":"1 43432U 18037A   26121.93830550 -.00000339  00000+0  00000+0 0  9994","tle2":"2 43432   0.0196 107.9420 0000572  80.5662 137.2089  1.00269867 29491"},{"name":"APSTAR-6C","tle1":"1 43450U 18041A   26120.22406023 -.00000316  00000+0  00000+0 0  9999","tle2":"2 43450   0.0486  33.6800 0002034 338.0831  61.0954  1.00272805 29327"},{"name":"BANGABANDHUSAT-1","tle1":"1 43463U 18044A   26121.93648550  .00000000  00000+0  00000+0 0  9997","tle2":"2 43463   0.0142 271.9909 0002343 136.4922 267.6098  1.00270219 29242"},{"name":"SES-12","tle1":"1 43488U 18049A   26121.93171881 -.00000264  00000+0  00000+0 0  9990","tle2":"2 43488   0.0477  71.3628 0001081 244.4678 334.4489  1.00270835 28954"},{"name":"FENGYUN 2H","tle1":"1 43491U 18050A   26121.92859880 -.00000123  00000+0  00000+0 0  9991","tle2":"2 43491   2.9142  79.5957 0001345 151.5219  42.3446  1.00274636 28978"}]}